"","address","city","country","keys","latitude","longitude","name","postalCode","province","websites"
"1","100 Northside Dr","Bennington","US","us/vt/bennington/100northsidedr/-864103396",42.89413,-73.20316,"Taco Bell","5201","VT","http://www.tacobell.com,https://locations.tacobell.com/vt/bennington/100-northside-drive.html?utm_source=yextandutm_campaign=yextpowerlistingsandutm_medium=referralandutm_term=033371andutm_content=website"
"2","161 Church St","Burlington","US","us/vt/burlington/161churchst/-1600724499",44.47568,-73.21264,"Pacific Rim","5401","VT",NA
"3","499 Canal St","Brattleboro","US","us/vt/brattleboro/499canalst/-1055723171",42.83924,-72.56684,"Domino's Pizza","5301","VT","http://www.dominos.com,https://www.dominos.com/en/?redirect=homepageandutm_source=locallistingsandutm_medium=loclistandutm_campaign=localmaps,https://www.dominos.com/en/?redirect=homepageandutm_source=yextandutm_medium=loclistandutm_campaign=localmaps"
"4","363 Swanton Rd","Saint Albans","US","us/vt/saintalbans/363swantonrd/-864103396",44.8396,-73.08202,"Taco Bell","5478","VT","http://www.tacobell.com,https://locations.tacobell.com/vt/saint-albans/363-swanton-road.html?utm_source=yextandutm_campaign=yextpowerlistingsandutm_medium=referralandutm_term=E715018andutm_content=website"
"5","580 Shelburne Rd Ste 11","Burlington","US","us/vt/burlington/580shelburnerdste11/-891525969",44.44926,-73.20896,"SUBWAY","5401","VT","http://subway.com,http://www.subway.com"
"6","25 Berlin St","Montpelier","US","us/vt/montpelier/25berlinst/-1055723171",44.25664,-72.57701,"Domino's Pizza","5602","VT","https://www.dominos.com/en/?redirect=homepage,https://www.dominos.com/en/?redirect=homepageandutm_source=locallistingsandutm_medium=loclistandutm_campaign=localmaps,https://www.dominos.com/en/?redirect=homepageandutm_source=yextandutm_medium=loclistandutm_campaign=localmaps"
"7","322 N Main St","Barre","US","us/vt/barre/322nmainst/-1055723171",44.20083,-72.50616,"Domino's Pizza","5641","VT","https://www.dominos.com/en/?redirect=homepageandutm_source=locallistingsandutm_medium=loclistandutm_campaign=localmaps,http://www.dominos.com,https://www.dominos.com/en/?redirect=homepageandutm_source=yextandutm_medium=loclistandutm_campaign=localmaps,https://www.dominos.com/en/?redirect=homepage&utm_source=yext&utm_medium=loclist&utm_campaign=localmaps"
"8","105 Morrisville Plz","Morrisville","US","us/vt/morrisville/105morrisvilleplz/-1161002137",44.574,-72.59198,"McDonalds","5661","VT","http://mcdonalds.com,http://www.mcdonalds.com/?cid=RF:YXT_FM:TP::Yext:Referral"
"9","112 Northside Dr","Bennington","US","us/vt/bennington/112northsidedr/-1161002137",42.895614,-73.20491,"McDonald's","5201","VT","http://mcdonalds.com,http://www.mcdonalds.com/?cid=RF:YXT_FM:TP::Yext:Referral"
"10","35 Kocher Dr","Bennington","US","us/vt/bennington/35kocherdr/-2061630068",42.894549,-73.202296,"Burger King","5201","VT","http://www.bk.com,https://locations.bk.com/vt/bennington/35-kocher-dr.html"
"11","748 Main St","Bennington","US","us/vt/bennington/748mainst/-1055723171",42.87916,-73.1852,"Domino's Pizza","5201","VT","https://www.dominos.com/en/?redirect=homepageandutm_source=locallistingsandutm_medium=loclistandutm_campaign=localmaps,https://www.dominos.com/en/?redirect=homepage,https://www.dominos.com/en/?redirect=homepage&utm_source=yext&utm_medium=loclist&utm_campaign=localmaps"
"12","24 Wales St","Rutland","US","us/vt/rutland/24walesst/-1055723171",43.6075,-72.9776,"Domino's Pizza","5701","VT","http://www.dominos.com,https://www.dominos.com/en/?redirect=homepageandutm_source=locallistingsandutm_medium=loclistandutm_campaign=localmaps,https://www.dominos.com/en/?redirect=homepageandutm_source=yextandutm_medium=loclistandutm_campaign=localmaps,https://www.dominos.com/en/?redirect=homepage&utm_source=yext&utm_medium=loclist&utm_campaign=localmaps"
"13","2729 Main St","Rutland","US","us/vt/rutland/2729mainst/-2061630068",43.630949,-72.976316,"Burger King","5701","VT","http://www.bk.com,https://locations.bk.com/vt/rutland/2729-north-main-st.html"
"14","153 S Main St","Rutland","US","us/vt/rutland/153smainst/106088",43.5981,-72.9708,"KFC","5701","VT","http://www.kfc.com"
"15","21 N Main St","Rutland","US","us/vt/rutland/21nmainst/-791445730",43.6096,-72.9724,"Wendy's","5701","VT","http://www.wendys.com"
"16","195 Woodstock Ave","Rutland","US","us/vt/rutland/195woodstockave/-1161002137",43.62267,-72.95304,"McDonald's","5701","VT","http://mcdonalds.com,http://www.mcdonalds.com/?cid=RF:YXT_FM:TP::Yext:Referral"
"17","478 S Barre Rd","Barre","US","us/vt/barre/478sbarrerd/-1161002137",44.17394,-72.50665,"McDonald's","5641","VT","http://mcdonalds.com,http://www.mcdonalds.com/?cid=RF:YXT_FM:TP::Yext:Referral"
"18","1331 Us Route 302","Barre","US","us/vt/barre/1331usroute302/-2061630068",44.22718,-72.55278,"Burger King","5641","VT","http://www.bk.com,https://locations.bk.com/vt/barre/1331-us-ret-302.html"
"19","191 Route 7 S","Milton","US","us/vt/milton/191route7s/-891525969",44.62584,-73.11798,"SUBWAY","5468","VT","http://www.subway.com"
"20","275 Railroad St Route 5","Saint Johnsbury","US","us/vt/saintjohnsbury/275railroadstroute5/-1161002137",44.4166,-72.0165,"McDonald's","5819","VT","http://mcdonalds.com,http://www.mcdonalds.com/?cid=RF:YXT_FM:TP::Yext:Referral"
"21","86 N Main St","Saint Albans","US","us/vt/saintalbans/86nmainst/-891525969",44.81303,-73.08328,"SUBWAY","5478","VT","http://subway.com,http://www.subway.com"
"22","133 Blakely Rd","Colchester","US","us/vt/colchester/133blakelyrd/-891525969",44.54342,-73.21404,"Subway","5446","VT","http://www.subway.com"
"23","1007 Putney Rd","Brattleboro","US","us/vt/brattleboro/1007putneyrd/106088,us/vt/brattleboro/1007putneyrd/106088",42.88168,-72.55782,"KFC","05301-9049","VT","http://www.kfc.com"
"24","44 S Park Dr","Colchester","US","us/vt/colchester/44sparkdr/-1161002137",44.50412,-73.17974,"McDonald's","5446","VT","http://www.mcdonalds.com/?cid=RF:YXT_FM:TP::Yext:Referral,http://mcdonalds.com"
"25","1125 Shelburne Rd","South Burlington","US","us/vt/southburlington/1125shelburnerd/-1161002137",44.43763,-73.21083,"McDonald's","5403","VT","http://mcdonalds.com,http://www.mcdonalds.com/?cid=RF:YXT_FM:TP::Yext:Referral"
"26","155 Dorset St","South Burlington","US","us/vt/southburlington/155dorsetst/-1161002137",44.46441,-73.18312,"McDonald's","5403","VT","http://mcdonalds.com,http://www.mcdonalds.com/?cid=RF:YXT_FM:TP::Yext:Referral"
"27","74 Maple St","Burlington","US","us/vt/burlington/74maplest/559008001",44.47368,-73.21676,"Handy's Lunch","5401","VT","http://www.handyslunch.com,http://handyslunch.com"
"28","182 S Main St","Rutland","US","us/vt/rutland/182smainst/-1161002137",43.59586,-72.96926,"McDonald's","5701","VT","http://mcdonalds.com,http://www.mcdonalds.com/?cid=RF:YXT_FM:TP::Yext:Referral"
"29","183 Swanton Rd","Saint Albans","US","us/vt/saintalbans/183swantonrd/-1161002137",44.837665,-73.080817,"McDonald's","5478","VT","http://mcdonalds.com,http://www.mcdonalds.com/?cid=RF:YXT_FM:TP::Yext:Referral"
"30","45 Beswick Dr","White River Junction","US","us/vt/whiteriverjunction/45beswickdr/-1161002137",43.64622,-72.33557,"McDonald's","5001","VT","http://mcdonalds.com,http://www.mcdonalds.com/?cid=RF:YXT_FM:TP::Yext:Referral"
"31","1059 Putney Rd","Brattleboro","US","us/vt/brattleboro/1059putneyrd/-791445730",42.883007,-72.557487,"Wendy's","5301","VT","http://www.wendys.com"
"32","1332 US Route 302","Barre","US","us/vt/barre/1332usroute302/-1161002137",44.22749,-72.55152,"McDonald's","5641","VT","http://mcdonalds.com,http://www.mcdonalds.com/?cid=RF:YXT_FM:TP::Yext:Referral"
"33","106 Pearl St","Essex Junction","US","us/vt/essexjunction/106pearlst/-1161002137",44.49519,-73.1221,"McDonald's","5452","VT","http://mcdonalds.com,http://www.mcdonalds.com/?cid=RF:YXT_FM:TP::Yext:Referral"
"34","1205 Williston Rd","South Burlington","US","us/vt/southburlington/1205willistonrd/-1161002137",44.46749,-73.17562,"McDonald's","5403","VT","http://www.mcdonalds.com/?cid=RF:YXT_FM:TP::Yext:Referral,http://mcdonalds.com"
"35","71 Upper Main St","Essex Junction","US","us/vt/essexjunction/71uppermainst/-1161002137",44.50736,-73.0865,"McDonald's","5452","VT","http://mcdonalds.com,http://www.mcdonalds.com/?cid=RF:YXT_FM:TP::Yext:Referral"
"36","79 Heineberg Dr","Colchester","US","us/vt/colchester/79heinebergdr/-1161002137",44.53525,-73.24849,"McDonald's","5446","VT","http://mcdonalds.com,http://www.mcdonalds.com/?cid=RF:YXT_FM:TP::Yext:Referral"
"37","1027 Putney Rd","Brattleboro","US","us/vt/brattleboro/1027putneyrd/-1161002137",42.88208,-72.55768,"McDonald's","5301","VT","http://mcdonalds.com,http://www.mcdonalds.com/?cid=RF:YXT_FM:TP::Yext:Referral"
"38","45 Farrell Rd","Rutland","US","us/vt/rutland/45farrellrd/-864103396",43.58408,-72.96861,"Taco Bell","5701","VT","http://www.tacobell.com,https://locations.tacobell.com/vt/rutland/45-farrell-road.html?utm_source=yextandutm_campaign=yextpowerlistingsandutm_medium=referralandutm_term=026367andutm_content=website"
"39","26 Railroad St","Saint Johnsbury","US","us/vt/saintjohnsbury/26railroadst/-891525969",44.412902,-72.01748,"Subway","5819","VT","http://www.subway.com"
"40","231 Main St","Brattleboro","US","us/vt/brattleboro/231mainst/-891525969",42.85586,-72.55979,"SUBWAY","5301","VT","http://www.subway.com"
"41","985 Memorial Dr","Saint Johnsbury","US","us/vt/saintjohnsbury/985memorialdr/-864103396",44.44642,-72.01625,"Taco Bell","5819","VT","http://www.tacobell.com,https://locations.tacobell.com/vt/saint-johnsbury/985-memorial-drive.html?utm_source=yextandutm_campaign=yextpowerlistingsandutm_medium=referralandutm_term=E715019andutm_content=website"
"42","250 Railroad St","Saint Johnsbury","US","us/vt/saintjohnsbury/250railroadst/-1055723171",44.41617,-72.01582,"Domino's Pizza","5819","VT","https://www.dominos.com/en/?redirect=homepageandutm_source=locallistingsandutm_medium=loclistandutm_campaign=localmaps,https://www.dominos.com/en/?redirect=homepage,https://www.dominos.com/en/?redirect=homepageandutm_source=yextandutm_medium=loclistandutm_campaign=localmaps,https://www.dominos.com/en/?redirect=homepage&utm_source=yext&utm_medium=loclist&utm_campaign=localmaps"
"43","1007 Putney Rd","Brattleboro","US","us/vt/brattleboro/1007putneyrd/-864103396",42.88168,-72.55782,"Taco Bell","5301","VT","http://www.tacobell.com,https://locations.tacobell.com/vt/brattleboro/1007-putney-road.html?utm_source=yextandutm_campaign=yextpowerlistingsandutm_medium=referralandutm_term=G205006andutm_content=website"
